{"type": "FeatureCollection", "features": [ {"type": "Feature", "properties": {"norad_id": 28659, "name": "DIRECTV 8", "group": "intelsat", "lat": -0.017667392046702424, "lon": 176.80769173807403, "alt_km": 35783.83030919171, "timestamp": "2025-12-07T14:37:04.876893+00:00", "meta": {"OBJECT_NAME": "DIRECTV 8", "OBJECT_ID": "2005-019A", "EPOCH": "2025-12-06T21:39:25.763328", "MEAN_MOTION": 1.00271231, "ECCENTRICITY": 0.00032584, "INCLINATION": 0.0172, "RA_OF_ASC_NODE": 325.6565, "ARG_OF_PERICENTER": 291.2333, "MEAN_ANOMALY": 24.854, "EPHEMERIS_TYPE": 0, "CLASSIFICATION_TYPE": "U", "NORAD_CAT_ID": 28659, "ELEMENT_SET_NO": 999, "REV_AT_EPOCH": 7514, "BSTAR": 0, "MEAN_MOTION_DOT": 7e-08, "MEAN_MOTION_DDOT": 0}, "tle": {"line1": "1 28659U 05019A   25340.90238152  .00000007  00000+0  00000+0 0  9994", "line2": "2 28659   0.0172 325.6565 0003258 291.2333  24.8540  1.00271231 75142"}}, "geometry": {"type": "Point", "coordinates": [176.80769173807403, -0.017667392046702424]}}, {"type": "Feature", "properties": {"norad_id": 28702, "name": "GALAXY 28 (G-28)", "group": "intelsat", "lat": 2.257267945701564, "lon": -152.7794719367596, "alt_km": 35778.591546432224, "timestamp": "2025-12-07T14:37:04.876905+00:00", "meta": {"OBJECT_NAME": "GALAXY 28 (G-28)", "OBJECT_ID": "2005-022A", "EPOCH": "2025-12-06T21:48:17.413632", "MEAN_MOTION": 1.00271622, "ECCENTRICITY": 0.00026405, "INCLINATION": 2.8037, "RA_OF_ASC_NODE": 81.3499, "ARG_OF_PERICENTER": 175.1863, "MEAN_ANOMALY": 57.7895, "EPHEMERIS_TYPE": 0, "CLASSIFICATION_TYPE": "U", "NORAD_CAT_ID": 28702, "ELEMENT_SET_NO": 999, "REV_AT_EPOCH": 5004, "BSTAR": 0, "MEAN_MOTION_DOT": -1.83e-06, "MEAN_MOTION_DDOT": 0}, "tle": {"line1": "1 28702U 05022A   25340.90853488 -.00000183  00000+0  00000+0 0  9998", "line2": "2 28702   2.8037  81.3499 0002640 175.1863  57.7895  1.00271622 50049"}}, "geometry": {"type": "Point", "coordinates": [-152.7794719367596, 2.257267945701564]}}, {"type": "Feature", "properties": {"norad_id": 29236, "name": "GALAXY 16 (G-16)", "group": "intelsat", "lat": 0.0007148281978898753, "lon": -163.14659745302637, "alt_km": 35781.04758307328, "timestamp": "2025-12-07T14:37:04.876917+00:00", "meta": {"OBJECT_NAME": "GALAXY 16 (G-16)", "OBJECT_ID": "2006-023A", "EPOCH": "2025-12-06T21:45:17.700768", "MEAN_MOTION": 1.00271112, "ECCENTRICITY": 0.00030012, "INCLINATION": 0.0075, "RA_OF_ASC_NODE": 231.4168, "ARG_OF_PERICENTER": 31.1429, "MEAN_ANOMALY": 40.6952, "EPHEMERIS_TYPE": 0, "CLASSIFICATION_TYPE": "U", "NORAD_CAT_ID": 29236, "ELEMENT_SET_NO": 999, "REV_AT_EPOCH": 7104, "BSTAR": 0, "MEAN_MOTION_DOT": -1.21e-06, "MEAN_MOTION_DDOT": 0}, "tle": {"line1": "1 29236U 06023A   25340.90645487 -.00000121  00000+0  00000+0 0  9993", "line2": "2 29236   0.0075 231.4168 0003001  31.1429  40.6952  1.00271112 71048"}}, "geometry": {"type": "Point", "coordinates": [-163.14659745302637, 0.0007148281978898753]}}, {"type": "Feature", "properties": {"norad_id": 29494, "name": "DIRECTV 9S", "group": "intelsat", "lat": 1.7805955284323458, "lon": -165.33834875861837, "alt_km": 35779.952975149696, "timestamp": "2025-12-07T14:37:04.876929+00:00", "meta": {"OBJECT_NAME": "DIRECTV 9S", "OBJECT_ID": "2006-043A", "EPOCH": "2025-12-06T21:44:40.261056", "MEAN_MOTION": 1.0027054, "ECCENTRICITY": 0.00032429, "INCLINATION": 1.9245, "RA_OF_ASC_NODE": 83.2693, "ARG_OF_PERICENTER": 174.2749, "MEAN_ANOMALY": 43.3512, "EPHEMERIS_TYPE": 0, "CLASSIFICATION_TYPE": "U", "NORAD_CAT_ID": 29494, "ELEMENT_SET_NO": 999, "REV_AT_EPOCH": 4945, "BSTAR": 0, "MEAN_MOTION_DOT": -1.08e-06, "MEAN_MOTION_DDOT": 0}, "tle": {"line1": "1 29494U 06043A   25340.90602154 -.00000108  00000+0  00000+0 0  9990", "line2": "2 29494   1.9245  83.2693 0003242 174.2749  43.3512  1.00270540 49456"}}, "geometry": {"type": "Point", "coordinates": [-165.33834875861837, 1.7805955284323458]}}, {"type": "Feature", "properties": {"norad_id": 31307, "name": "GALAXY 17 (G-17)", "group": "intelsat", "lat": 1.9275562173414629, "lon": -149.12297380574282, "alt_km": 35764.68145886742, "timestamp": "2025-12-07T14:37:04.876941+00:00", "meta": {"OBJECT_NAME": "GALAXY 17 (G-17)", "OBJECT_ID": "2007-016B", "EPOCH": "2025-12-06T21:49:17.319072", "MEAN_MOTION": 1.0027007, "ECCENTRICITY": 0.00060538, "INCLINATION": 2.4847, "RA_OF_ASC_NODE": 82.3498, "ARG_OF_PERICENTER": 160.6013, "MEAN_ANOMALY": 75.3063, "EPHEMERIS_TYPE": 0, "CLASSIFICATION_TYPE": "U", "NORAD_CAT_ID": 31307, "ELEMENT_SET_NO": 999, "REV_AT_EPOCH": 6787, "BSTAR": 0, "MEAN_MOTION_DOT": -2.01e-06, "MEAN_MOTION_DDOT": 0}, "tle": {"line1": "1 31307U 07016B   25340.90922823 -.00000201  00000+0  00000+0 0  9999", "line2": "2 31307   2.4847  82.3498 0006053 160.6013  75.3063  1.00270070 67875"}}, "geometry": {"type": "Point", "coordinates": [-149.12297380574282, 1.9275562173414629]}}, {"type": "Feature", "properties": {"norad_id": 31862, "name": "DIRECTV 10", "group": "intelsat", "lat": -0.0014062203770592422, "lon": -166.89813427492862, "alt_km": 35784.58055450913, "timestamp": "2025-12-07T14:37:04.876953+00:00", "meta": {"OBJECT_NAME": "DIRECTV 10", "OBJECT_ID": "2007-032A", "EPOCH": "2025-12-06T21:44:10.308768", "MEAN_MOTION": 1.00270628, "ECCENTRICITY": 4.439e-05, "INCLINATION": 0.0054, "RA_OF_ASC_NODE": 245.1818, "ARG_OF_PERICENTER": 317.9855, "MEAN_ANOMALY": 96.0251, "EPHEMERIS_TYPE": 0, "CLASSIFICATION_TYPE": "U", "NORAD_CAT_ID": 31862, "ELEMENT_SET_NO": 999, "REV_AT_EPOCH": 4366, "BSTAR": 0, "MEAN_MOTION_DOT": -9.7e-07, "MEAN_MOTION_DDOT": 0}, "tle": {"line1": "1 31862U 07032A   25340.90567487 -.00000097  00000+0  00000+0 0  9997", "line2": "2 31862   0.0054 245.1818 0000443 317.9855  96.0251  1.00270628 43667"}}, "geometry": {"type": "Point", "coordinates": [-166.89813427492862, -0.0014062203770592422]}}, {"type": "Feature", "properties": {"norad_id": 32253, "name": "INTELSAT 11 (IS-11)", "group": "intelsat", "lat": 2.979054746321563, "lon": -175.89950421759275, "alt_km": 36113.01325002729, "timestamp": "2025-12-07T14:37:04.876965+00:00", "meta": {"OBJECT_NAME": "INTELSAT 11 (IS-11)", "OBJECT_ID": "2007-044B", "EPOCH": "2025-12-06T21:42:32.963616", "MEAN_MOTION": 0.99047241, "ECCENTRICITY": 0.00092414, "INCLINATION": 3.0644, "RA_OF_ASC_NODE": 81.0395, "ARG_OF_PERICENTER": 163.34, "MEAN_ANOMALY": 48.5761, "EPHEMERIS_TYPE": 0, "CLASSIFICATION_TYPE": "U", "NORAD_CAT_ID": 32253, "ELEMENT_SET_NO": 999, "REV_AT_EPOCH": 6654, "BSTAR": 0, "MEAN_MOTION_DOT": 5.3e-07, "MEAN_MOTION_DDOT": 0}, "tle": {"line1": "1 32253U 07044B   25340.90454819  .00000053  00000+0  00000+0 0  9990", "line2": "2 32253   3.0644  81.0395 0009241 163.3400  48.5761  0.99047241 66541"}}, "geometry": {"type": "Point", "coordinates": [-175.89950421759275, 2.979054746321563]}}, {"type": "Feature", "properties": {"norad_id": 32388, "name": "HORIZONS-2", "group": "intelsat", "lat": 1.3596622414588968, "lon": -137.90575552194483, "alt_km": 35771.06586220517, "timestamp": "2025-12-07T14:37:04.876977+00:00", "meta": {"OBJECT_NAME": "HORIZONS-2", "OBJECT_ID": "2007-063B", "EPOCH": "2025-12-06T21:52:32.007648", "MEAN_MOTION": 1.00271059, "ECCENTRICITY": 0.00050787, "INCLINATION": 2.1057, "RA_OF_ASC_NODE": 83.0214, "ARG_OF_PERICENTER": 184.5284, "MEAN_ANOMALY": 62.7481, "EPHEMERIS_TYPE": 0, "CLASSIFICATION_TYPE": "U", "NORAD_CAT_ID": 32388, "ELEMENT_SET_NO": 999, "REV_AT_EPOCH": 6588, "BSTAR": 0, "MEAN_MOTION_DOT": -2.49e-06, "MEAN_MOTION_DDOT": 0}, "tle": {"line1": "1 32388U 07063B   25340.91148157 -.00000249  00000+0  00000+0 0  9994", "line2": "2 32388   2.1057  83.0214 0005078 184.5284  62.7481  1.00271059 65881"}}, "geometry": {"type": "Point", "coordinates": [-137.90575552194483, 1.3596622414588968]}}, {"type": "Feature", "properties": {"norad_id": 32729, "name": "DIRECTV 11", "group": "intelsat", "lat": 0.0018265603145199698, "lon": -163.290534855132, "alt_km": 35783.327498515835, "timestamp": "2025-12-07T14:37:04.876989+00:00", "meta": {"OBJECT_NAME": "DIRECTV 11", "OBJECT_ID": "2008-013A", "EPOCH": "2025-12-06T11:28:54.626592", "MEAN_MOTION": 1.00274292, "ECCENTRICITY": 5.186e-05, "INCLINATION": 0.0204, "RA_OF_ASC_NODE": 155.7645, "ARG_OF_PERICENTER": 58.6641, "MEAN_ANOMALY": 294.1227, "EPHEMERIS_TYPE": 0, "CLASSIFICATION_TYPE": "U", "NORAD_CAT_ID": 32729, "ELEMENT_SET_NO": 999, "REV_AT_EPOCH": 4366, "BSTAR": 0, "MEAN_MOTION_DOT": -1.19e-06, "MEAN_MOTION_DDOT": 0}, "tle": {"line1": "1 32729U 08013A   25340.47841003 -.00000119  00000+0  00000+0 0  9996", "line2": "2 32729   0.0204 155.7645 0000518  58.6641 294.1227  1.00274292 43661"}}, "geometry": {"type": "Point", "coordinates": [-163.290534855132, 0.0018265603145199698]}}, {"type": "Feature", "properties": {"norad_id": 32951, "name": "GALAXY 18 (G-18)", "group": "intelsat", "lat": 0.010391069386728968, "lon": 172.84108769724526, "alt_km": 35785.46362584928, "timestamp": "2025-12-07T14:37:04.877000+00:00", "meta": {"OBJECT_NAME": "GALAXY 18 (G-18)", "OBJECT_ID": "2008-024A", "EPOCH": "2025-12-06T14:47:35.598336", "MEAN_MOTION": 1.00269923, "ECCENTRICITY": 0.00033187, "INCLINATION": 0.0164, "RA_OF_ASC_NODE": 45.319, "ARG_OF_PERICENTER": 213.1303, "MEAN_ANOMALY": 276.0929, "EPHEMERIS_TYPE": 0, "CLASSIFICATION_TYPE": "U", "NORAD_CAT_ID": 32951, "ELEMENT_SET_NO": 999, "REV_AT_EPOCH": 4392, "BSTAR": 0, "MEAN_MOTION_DOT": 3.2e-07, "MEAN_MOTION_DDOT": 0}, "tle": {"line1": "1 32951U 08024A   25340.61638424  .00000032  00000+0  00000+0 0  9995", "line2": "2 32951   0.0164  45.3190 0003318 213.1303 276.0929  1.00269923 43928"}}, "geometry": {"type": "Point", "coordinates": [172.84108769724526, 0.010391069386728968]}}]}